{
  "type": "FeatureCollection",
  "features": [
    {
      "type": "Feature",
      "properties": {
        "norad_id": 33412,
        "name": "COSMO-SKYMED 3",
        "group": "resource",
        "lat": 50.417459498501245,
        "lon": 176.98889726238878,
        "alt_km": 556.0484742557264,
        "timestamp": "2025-12-02T08:59:32.376273+00:00",
        "meta_object_name": "COSMO-SKYMED 3",
        "meta_object_id": "2008-054A",
        "meta_epoch": "2025-12-01T20:00:06.114240",
        "meta_mean_motion": 15.05190749,
        "meta_eccentricity": 0.0015245,
        "meta_inclination": 97.8478,
        "meta_ra_of_asc_node": 186.0423,
        "meta_arg_of_pericenter": 210.1619,
        "meta_mean_anomaly": 149.873,
        "meta_ephemeris_type": 0,
        "meta_classification_type": "U",
        "meta_norad_cat_id": 33412,
        "meta_element_set_no": 999,
        "meta_rev_at_epoch": 92723,
        "meta_bstar": 0.00032321,
        "meta_mean_motion_dot": 4.556e-05,
        "meta_mean_motion_ddot": 0,
        "tle_line1": "1 33412U 08054A   25335.83340410  .00004556  00000+0  32321-3 0  9994",
        "tle_line2": "2 33412  97.8478 186.0423 0015245 210.1619 149.8730 15.05190749927235"
      },
      "geometry": {
        "type": "Point",
        "coordinates": [
          176.98889726238878,
          50.417459498501245
        ]
      }
    },
    {
      "type": "Feature",
      "properties": {
        "norad_id": 33446,
        "name": "YAOGAN-4",
        "group": "resource",
        "lat": 24.288711410541538,
        "lon": 90.17683990256533,
        "alt_km": 629.8379247179537,
        "timestamp": "2025-12-02T08:59:32.376285+00:00",
        "meta_object_name": "YAOGAN-4",
        "meta_object_id": "2008-061A",
        "meta_epoch": "2025-12-02T01:48:54.750816",
        "meta_mean_motion": 14.82626572,
        "meta_eccentricity": 0.0014513,
        "meta_inclination": 97.9167,
        "meta_ra_of_asc_node": 266.2805,
        "meta_arg_of_pericenter": 358.8966,
        "meta_mean_anomaly": 1.2213,
        "meta_ephemeris_type": 0,
        "meta_classification_type": "U",
        "meta_norad_cat_id": 33446,
        "meta_element_set_no": 999,
        "meta_rev_at_epoch": 91645,
        "meta_bstar": 0.00023667,
        "meta_mean_motion_dot": 1.856e-05,
        "meta_mean_motion_ddot": 0,
        "tle_line1": "1 33446U 08061A   25336.07563369  .00001856  00000+0  23667-3 0  9999",
        "tle_line2": "2 33446  97.9167 266.2805 0014513 358.8966   1.2213 14.82626572916456"
      },
      "geometry": {
        "type": "Point",
        "coordinates": [
          90.17683990256533,
          24.288711410541538
        ]
      }
    },
    {
      "type": "Feature",
      "properties": {
        "norad_id": 33492,
        "name": "GOSAT (IBUKI)",
        "group": "resource",
        "lat": 49.49549147594514,
        "lon": 75.55334829366842,
        "alt_km": 663.8288288919184,
        "timestamp": "2025-12-02T08:59:32.376296+00:00",
        "meta_object_name": "GOSAT (IBUKI)",
        "meta_object_id": "2009-002A",
        "meta_epoch": "2025-12-02T03:51:19.536192",
        "meta_mean_motion": 14.67546629,
        "meta_eccentricity": 9.98e-05,
        "meta_inclination": 98.0766,
        "meta_ra_of_asc_node": 84.9112,
        "meta_arg_of_pericenter": 84.2338,
        "meta_mean_anomaly": 275.898,
        "meta_ephemeris_type": 0,
        "meta_classification_type": "U",
        "meta_norad_cat_id": 33492,
        "meta_element_set_no": 999,
        "meta_rev_at_epoch": 90256,
        "meta_bstar": 0.00020425,
        "meta_mean_motion_dot": 1.111e-05,
        "meta_mean_motion_ddot": 0,
        "tle_line1": "1 33492U 09002A   25336.16064278  .00001111  00000+0  20425-3 0  9994",
        "tle_line2": "2 33492  98.0766  84.9112 0000998  84.2338 275.8980 14.67546629902569"
      },
      "geometry": {
        "type": "Point",
        "coordinates": [
          75.55334829366842,
          49.49549147594514
        ]
      }
    },
    {
      "type": "Feature",
      "properties": {
        "norad_id": 35681,
        "name": "DEIMOS-1",
        "group": "resource",
        "lat": -32.61170976935591,
        "lon": -47.51447758401088,
        "alt_km": 652.3098637411249,
        "timestamp": "2025-12-02T08:59:32.376308+00:00",
        "meta_object_name": "DEIMOS-1",
        "meta_object_id": "2009-041A",
        "meta_epoch": "2025-12-02T04:46:26.857344",
        "meta_mean_motion": 14.74925681,
        "meta_eccentricity": 0.0002666,
        "meta_inclination": 97.7145,
        "meta_ra_of_asc_node": 137.2935,
        "meta_arg_of_pericenter": 98.7938,
        "meta_mean_anomaly": 261.3574,
        "meta_ephemeris_type": 0,
        "meta_classification_type": "U",
        "meta_norad_cat_id": 35681,
        "meta_element_set_no": 999,
        "meta_rev_at_epoch": 87784,
        "meta_bstar": 0.00013823,
        "meta_mean_motion_dot": 8.81e-06,
        "meta_mean_motion_ddot": 0,
        "tle_line1": "1 35681U 09041A   25336.19892196  .00000881  00000+0  13823-3 0  9997",
        "tle_line2": "2 35681  97.7145 137.2935 0002666  98.7938 261.3574 14.74925681877841"
      },
      "geometry": {
        "type": "Point",
        "coordinates": [
          -47.51447758401088,
          -32.61170976935591
        ]
      }
    },
    {
      "type": "Feature",
      "properties": {
        "norad_id": 35682,
        "name": "DUBAISAT-1",
        "group": "resource",
        "lat": 18.830226790789318,
        "lon": -70.05078621959359,
        "alt_km": 653.948749289656,
        "timestamp": "2025-12-02T08:59:32.376319+00:00",
        "meta_object_name": "DUBAISAT-1",
        "meta_object_id": "2009-041B",
        "meta_epoch": "2025-12-01T22:29:36.780864",
        "meta_mean_motion": 14.74553028,
        "meta_eccentricity": 0.0010246,
        "meta_inclination": 97.9785,
        "meta_ra_of_asc_node": 106.777,
        "meta_arg_of_pericenter": 351.216,
        "meta_mean_anomaly": 8.8867,
        "meta_ephemeris_type": 0,
        "meta_classification_type": "U",
        "meta_norad_cat_id": 35682,
        "meta_element_set_no": 999,
        "meta_rev_at_epoch": 87602,
        "meta_bstar": 0.00022492,
        "meta_mean_motion_dot": 1.448e-05,
        "meta_mean_motion_ddot": 0,
        "tle_line1": "1 35682U 09041B   25335.93723126  .00001448  00000+0  22492-3 0  9997",
        "tle_line2": "2 35682  97.9785 106.7770 0010246 351.2160   8.8867 14.74553028876029"
      },
      "geometry": {
        "type": "Point",
        "coordinates": [
          -70.05078621959359,
          18.830226790789318
        ]
      }
    },
    {
      "type": "Feature",
      "properties": {
        "norad_id": 35931,
        "name": "OCEANSAT-2",
        "group": "resource",
        "lat": -69.64061600904243,
        "lon": 135.091562888969,
        "alt_km": 914.4734110348345,
        "timestamp": "2025-12-02T08:59:32.376330+00:00",
        "meta_object_name": "OCEANSAT-2",
        "meta_object_id": "2009-051A",
        "meta_epoch": "2025-12-02T04:21:53.384832",
        "meta_mean_motion": 13.9962682,
        "meta_eccentricity": 0.0016667,
        "meta_inclination": 98.2232,
        "meta_ra_of_asc_node": 337.8528,
        "meta_arg_of_pericenter": 72.4172,
        "meta_mean_anomaly": 287.8814,
        "meta_ephemeris_type": 0,
        "meta_classification_type": "U",
        "meta_norad_cat_id": 35931,
        "meta_element_set_no": 999,
        "meta_rev_at_epoch": 85177,
        "meta_bstar": -8.3538e-05,
        "meta_mean_motion_dot": -1.6e-06,
        "meta_mean_motion_ddot": 0,
        "tle_line1": "1 35931U 09051A   25336.18186788 -.00000160  00000+0 -83538-4 0  9991",
        "tle_line2": "2 35931  98.2232 337.8528 0016667  72.4172 287.8814 13.99626820851776"
      },
      "geometry": {
        "type": "Point",
        "coordinates": [
          135.091562888969,
          -69.64061600904243
        ]
      }
    },
    {
      "type": "Feature",
      "properties": {
        "norad_id": 35946,
        "name": "WORLDVIEW-2 (WV-2)",
        "group": "resource",
        "lat": 34.592606277203544,
        "lon": 41.70005362614972,
        "alt_km": 761.8469101852725,
        "timestamp": "2025-12-02T08:59:32.376340+00:00",
        "meta_object_name": "WORLDVIEW-2 (WV-2)",
        "meta_object_id": "2009-055A",
        "meta_epoch": "2025-12-02T03:49:07.968864",
        "meta_mean_motion": 14.37644536,
        "meta_eccentricity": 0.0005441,
        "meta_inclination": 98.4773,
        "meta_ra_of_asc_node": 47.3913,
        "meta_arg_of_pericenter": 92.1985,
        "meta_mean_anomaly": 267.9825,
        "meta_ephemeris_type": 0,
        "meta_classification_type": "U",
        "meta_norad_cat_id": 35946,
        "meta_element_set_no": 999,
        "meta_rev_at_epoch": 84733,
        "meta_bstar": 8.7495e-05,
        "meta_mean_motion_dot": 2.19e-06,
        "meta_mean_motion_ddot": 0,
        "tle_line1": "1 35946U 09055A   25336.15912001  .00000219  00000+0  87495-4 0  9992",
        "tle_line2": "2 35946  98.4773  47.3913 0005441  92.1985 267.9825 14.37644536847339"
      },
      "geometry": {
        "type": "Point",
        "coordinates": [
          41.70005362614972,
          34.592606277203544
        ]
      }
    }
  ]
}